[{"OBJECT_NAME":"ONEWEB-0683","OBJECT_ID":"2023-068K","EPOCH":"2026-05-18T02:07:54.046272","MEAN_MOTION":13.1554766,"ECCENTRICITY":0.0001888,"INCLINATION":87.899,"RA_OF_ASC_NODE":265.1897,"ARG_OF_PERICENTER":109.14,"MEAN_ANOMALY":250.9935,"EPHEMERIS_TYPE":0,"CLASSIFICATION_TYPE":"U","NORAD_CAT_ID":56719,"ELEMENT_SET_NO":999,"REV_AT_EPOCH":14546,"BSTAR":-4.2372e-05,"MEAN_MOTION_DOT":-3e-08,"MEAN_MOTION_DDOT":0.0},{"OBJECT_NAME":"ONEWEB-0684","OBJECT_ID":"2023-068L","EPOCH":"2026-05-18T02:19:17.383872","MEAN_MOTION":13.15550043,"ECCENTRICITY":0.000101,"INCLINATION":87.8987,"RA_OF_ASC_NODE":265.1789,"ARG_OF_PERICENTER":56.2355,"MEAN_ANOMALY":303.8872,"EPHEMERIS_TYPE":0,"CLASSIFICATION_TYPE":"U","NORAD_CAT_ID":56720,"ELEMENT_SET_NO":999,"REV_AT_EPOCH":14529,"BSTAR":0.00015917,"MEAN_MOTION_DOT":7.3e-07,"MEAN_MOTION_DDOT":0.0},{"OBJECT_NAME":"ONEWEB-0686","OBJECT_ID":"2023-068M","EPOCH":"2026-05-18T04:26:49.772256","MEAN_MOTION":13.16596856,"ECCENTRICITY":0.0001729,"INCLINATION":87.9097,"RA_OF_ASC_NODE":234.7526,"ARG_OF_PERICENTER":108.8261,"MEAN_ANOMALY":251.3058,"EPHEMERIS_TYPE":0,"CLASSIFICATION_TYPE":"U","NORAD_CAT_ID":56721,"ELEMENT_SET_NO":999,"REV_AT_EPOCH":14776,"BSTAR":0.00023621000000000002,"MEAN_MOTION_DOT":1.03e-06,"MEAN_MOTION_DDOT":0.0},{"OBJECT_NAME":"ONEWEB-0694","OBJECT_ID":"2023-068N","EPOCH":"2026-05-18T04:35:55.929984","MEAN_MOTION":13.16592451,"ECCENTRICITY":0.0002132,"INCLINATION":87.9117,"RA_OF_ASC_NODE":234.7099,"ARG_OF_PERICENTER":113.9441,"MEAN_ANOMALY":246.1914,"EPHEMERIS_TYPE":0,"CLASSIFICATION_TYPE":"U","NORAD_CAT_ID":56722,"ELEMENT_SET_NO":999,"REV_AT_EPOCH":14782,"BSTAR":6.165000000000001e-05,"MEAN_MOTION_DOT":3.6e-07,"MEAN_MOTION_DDOT":0.0},{"OBJECT_NAME":"ONEWEB-0696","OBJECT_ID":"2023-068P","EPOCH":"2026-05-18T01:17:41.374176","MEAN_MOTION":13.15550066,"ECCENTRICITY":0.0001697,"INCLINATION":87.8984,"RA_OF_ASC_NODE":265.228,"ARG_OF_PERICENTER":86.2384,"MEAN_ANOMALY":273.8941,"EPHEMERIS_TYPE":0,"CLASSIFICATION_TYPE":"U","NORAD_CAT_ID":56723,"ELEMENT_SET_NO":999,"REV_AT_EPOCH":14540,"BSTAR":-0.00022466,"MEAN_MOTION_DOT":-7.2e-07,"MEAN_MOTION_DDOT":0.0},{"OBJECT_NAME":"ONEWEB-0703","OBJECT_ID":"2023-068Q","EPOCH":"2026-05-18T01:31:22.834272","MEAN_MOTION":13.1554696,"ECCENTRICITY":0.0002125,"INCLINATION":87.8986,"RA_OF_ASC_NODE":265.2073,"ARG_OF_PERICENTER":75.5656,"MEAN_ANOMALY":284.571,"EPHEMERIS_TYPE":0,"CLASSIFICATION_TYPE":"U","NORAD_CAT_ID":56724,"ELEMENT_SET_NO":999,"REV_AT_EPOCH":14529,"BSTAR":-0.00015007,"MEAN_MOTION_DOT":-4.4e-07,"MEAN_MOTION_DDOT":0.0},{"OBJECT_NAME":"ONEWEB-0721","OBJECT_ID":"2023-068R","EPOCH":"2026-05-18T04:17:31.917696","MEAN_MOTION":13.22466701,"ECCENTRICITY":0.0001987,"INCLINATION":86.6747,"RA_OF_ASC_NODE":95.0932,"ARG_OF_PERICENTER":81.9224,"MEAN_ANOMALY":278.2135,"EPHEMERIS_TYPE":0,"CLASSIFICATION_TYPE":"U","NORAD_CAT_ID":56725,"ELEMENT_SET_NO":999,"REV_AT_EPOCH":15397,"BSTAR":-0.0003017,"MEAN_MOTION_DOT":-1.11e-06,"MEAN_MOTION_DDOT":0.0},{"OBJECT_NAME":"ONEWEB-0015","OBJECT_ID":"2024-188A","EPOCH":"2026-05-18T04:08:00.354912","MEAN_MOTION":13.11414832,"ECCENTRICITY":0.0002319,"INCLINATION":87.8913,"RA_OF_ASC_NODE":27.064,"ARG_OF_PERICENTER":88.5615,"MEAN_ANOMALY":271.5779,"EPHEMERIS_TYPE":0,"CLASSIFICATION_TYPE":"U","NORAD_CAT_ID":61594,"ELEMENT_SET_NO":999,"REV_AT_EPOCH":8052,"BSTAR":-0.0011268,"MEAN_MOTION_DOT":-3.87e-06,"MEAN_MOTION_DDOT":0.0},{"OBJECT_NAME":"ONEWEB-0687","OBJECT_ID":"2024-188B","EPOCH":"2026-05-18T03:50:29.729184","MEAN_MOTION":13.17649649,"ECCENTRICITY":0.0001989,"INCLINATION":87.9154,"RA_OF_ASC_NODE":11.8487,"ARG_OF_PERICENTER":98.4643,"MEAN_ANOMALY":261.6714,"EPHEMERIS_TYPE":0,"CLASSIFICATION_TYPE":"U","NORAD_CAT_ID":61595,"ELEMENT_SET_NO":999,"REV_AT_EPOCH":8194,"BSTAR":0.00018584,"MEAN_MOTION_DOT":8.5e-07,"MEAN_MOTION_DDOT":0.0},{"OBJECT_NAME":"ONEWEB-0688","OBJECT_ID":"2024-188C","EPOCH":"2026-05-18T02:42:27.152928","MEAN_MOTION":13.17650738,"ECCENTRICITY":0.0002998,"INCLINATION":87.9154,"RA_OF_ASC_NODE":11.8577,"ARG_OF_PERICENTER":93.892,"MEAN_ANOMALY":266.2554,"EPHEMERIS_TYPE":0,"CLASSIFICATION_TYPE":"U","NORAD_CAT_ID":61596,"ELEMENT_SET_NO":999,"REV_AT_EPOCH":8193,"BSTAR":5.463200000000001e-05,"MEAN_MOTION_DOT":3.4e-07,"MEAN_MOTION_DDOT":0.0},{"OBJECT_NAME":"ONEWEB-0689","OBJECT_ID":"2024-188D","EPOCH":"2026-05-18T03:06:59.707008","MEAN_MOTION":13.11417589,"ECCENTRICITY":0.0001684,"INCLINATION":87.8935,"RA_OF_ASC_NODE":27.0254,"ARG_OF_PERICENTER":90.4449,"MEAN_ANOMALY":269.6872,"EPHEMERIS_TYPE":0,"CLASSIFICATION_TYPE":"U","NORAD_CAT_ID":61597,"ELEMENT_SET_NO":999,"REV_AT_EPOCH":8051,"BSTAR":0.0012119000000000001,"MEAN_MOTION_DOT":4.42e-06,"MEAN_MOTION_DDOT":0.0},{"OBJECT_NAME":"ONEWEB-0690","OBJECT_ID":"2024-188E","EPOCH":"2026-05-18T03:21:36.368064","MEAN_MOTION":13.11462557,"ECCENTRICITY":0.0002664,"INCLINATION":87.8909,"RA_OF_ASC_NODE":27.0357,"ARG_OF_PERICENTER":53.6195,"MEAN_ANOMALY":306.5179,"EPHEMERIS_TYPE":0,"CLASSIFICATION_TYPE":"U","NORAD_CAT_ID":61598,"ELEMENT_SET_NO":999,"REV_AT_EPOCH":8069,"BSTAR":0.019536,"MEAN_MOTION_DOT":6.946e-05,"MEAN_MOTION_DDOT":0.0},{"OBJECT_NAME":"ONEWEB-0691","OBJECT_ID":"2024-188F","EPOCH":"2026-05-18T03:14:18.925728","MEAN_MOTION":13.11419621,"ECCENTRICITY":0.0002157,"INCLINATION":87.8932,"RA_OF_ASC_NODE":26.9444,"ARG_OF_PERICENTER":89.03,"MEAN_ANOMALY":271.1075,"EPHEMERIS_TYPE":0,"CLASSIFICATION_TYPE":"U","NORAD_CAT_ID":61599,"ELEMENT_SET_NO":999,"REV_AT_EPOCH":8054,"BSTAR":0.0016131000000000001,"MEAN_MOTION_DOT":5.84e-06,"MEAN_MOTION_DDOT":0.0},{"OBJECT_NAME":"ONEWEB-0692","OBJECT_ID":"2024-188G","EPOCH":"2026-05-18T03:43:36.640416","MEAN_MOTION":13.11414825,"ECCENTRICITY":9.99e-05,"INCLINATION":87.8909,"RA_OF_ASC_NODE":27.0594,"ARG_OF_PERICENTER":78.7467,"MEAN_ANOMALY":281.3773,"EPHEMERIS_TYPE":0,"CLASSIFICATION_TYPE":"U","NORAD_CAT_ID":61600,"ELEMENT_SET_NO":999,"REV_AT_EPOCH":8053,"BSTAR":0.00073326,"MEAN_MOTION_DOT":2.73e-06,"MEAN_MOTION_DDOT":0.0},{"OBJECT_NAME":"ONEWEB-0693","OBJECT_ID":"2024-188H","EPOCH":"2026-05-18T01:10:07.137408","MEAN_MOTION":13.17650091,"ECCENTRICITY":0.0002367,"INCLINATION":87.915,"RA_OF_ASC_NODE":11.8916,"ARG_OF_PERICENTER":66.2061,"MEAN_ANOMALY":293.9319,"EPHEMERIS_TYPE":0,"CLASSIFICATION_TYPE":"U","NORAD_CAT_ID":61601,"ELEMENT_SET_NO":999,"REV_AT_EPOCH":8191,"BSTAR":4.69e-05,"MEAN_MOTION_DOT":3.1e-07,"MEAN_MOTION_DDOT":0.0},{"OBJECT_NAME":"ONEWEB-0695","OBJECT_ID":"2024-188J","EPOCH":"2026-05-18T03:09:24.971328","MEAN_MOTION":13.11420104,"ECCENTRICITY":0.000135,"INCLINATION":87.8912,"RA_OF_ASC_NODE":27.0559,"ARG_OF_PERICENTER":91.1213,"MEAN_ANOMALY":269.007,"EPHEMERIS_TYPE":0,"CLASSIFICATION_TYPE":"U","NORAD_CAT_ID":61602,"ELEMENT_SET_NO":999,"REV_AT_EPOCH":8052,"BSTAR":0.0012967999999999999,"MEAN_MOTION_DOT":4.72e-06,"MEAN_MOTION_DDOT":0.0}]