ONEWEB-0683             
1 56719U 23068K   26138.08881998 -.00000003  00000+0 -42372-4 0  9994
2 56719  87.8990 265.1897 0001888 109.1400 250.9935 13.15547660145460
ONEWEB-0684             
1 56720U 23068L   26138.09672898  .00000073  00000+0  15917-3 0  9993
2 56720  87.8987 265.1789 0001010  56.2355 303.8872 13.15550043145294
ONEWEB-0686             
1 56721U 23068M   26138.18529829  .00000103  00000+0  23621-3 0  9994
2 56721  87.9097 234.7526 0001729 108.8261 251.3058 13.16596856147766
ONEWEB-0694             
1 56722U 23068N   26138.19161956  .00000036  00000+0  61650-4 0  9999
2 56722  87.9117 234.7099 0002132 113.9441 246.1914 13.16592451147828
ONEWEB-0696             
1 56723U 23068P   26138.05395109 -.00000072  00000+0 -22466-3 0  9997
2 56723  87.8984 265.2280 0001697  86.2384 273.8941 13.15550066145408
ONEWEB-0703             
1 56724U 23068Q   26138.06345873 -.00000044  00000+0 -15007-3 0  9994
2 56724  87.8986 265.2073 0002125  75.5656 284.5710 13.15546960145299
ONEWEB-0721             
1 56725U 23068R   26138.17884164 -.00000111  00000+0 -30170-3 0  9991
2 56725  86.6747  95.0932 0001987  81.9224 278.2135 13.22466701153979
ONEWEB-0015             
1 61594U 24188A   26138.17222633 -.00000387  00000+0 -11268-2 0  9993
2 61594  87.8913  27.0640 0002319  88.5615 271.5779 13.11414832 80521
ONEWEB-0687             
1 61595U 24188B   26138.16006631  .00000085  00000+0  18584-3 0  9993
2 61595  87.9154  11.8487 0001989  98.4643 261.6714 13.17649649 81941
ONEWEB-0688             
1 61596U 24188C   26138.11281427  .00000034  00000+0  54632-4 0  9996
2 61596  87.9154  11.8577 0002998  93.8920 266.2554 13.17650738 81933
ONEWEB-0689             
1 61597U 24188D   26138.12985772  .00000442  00000+0  12119-2 0  9997
2 61597  87.8935  27.0254 0001684  90.4449 269.6872 13.11417589 80513
ONEWEB-0690             
1 61598U 24188E   26138.14000426  .00006946  00000+0  19536-1 0  9998
2 61598  87.8909  27.0357 0002664  53.6195 306.5179 13.11462557 80692
ONEWEB-0691             
1 61599U 24188F   26138.13494127  .00000584  00000+0  16131-2 0  9994
2 61599  87.8932  26.9444 0002157  89.0300 271.1075 13.11419621 80542
ONEWEB-0692             
1 61600U 24188G   26138.15528519  .00000273  00000+0  73326-3 0  9997
2 61600  87.8909  27.0594 0000999  78.7467 281.3773 13.11414825 80536
ONEWEB-0693             
1 61601U 24188H   26138.04869372  .00000031  00000+0  46900-4 0  9992
2 61601  87.9150  11.8916 0002367  66.2061 293.9319 13.17650091 81919
ONEWEB-0695             
1 61602U 24188J   26138.13153902  .00000472  00000+0  12968-2 0  9992
2 61602  87.8912  27.0559 0001350  91.1213 269.0070 13.11420104 80522
